CCSDS_OEM_VERS = 1.0
CREATION_DATE  = 2017-05-11T11:48:55
ORIGINATOR     = GMAT USER

META_START
OBJECT_NAME          = MOPSSat_alt_35785_km_RAAN_270_007
OBJECT_ID            = SatId
CENTER_NAME          = Earth
REF_FRAME            = EME2000
TIME_SYSTEM          = UTC
START_TIME           = 2017-01-01T00:00:00.000
USEABLE_START_TIME   = 2017-01-01T00:00:00.000
USEABLE_STOP_TIME    = 2017-01-02T00:00:00.000
STOP_TIME            = 2017-01-02T00:00:00.000
INTERPOLATION        = Lagrange
INTERPOLATION_DEGREE = 7 
META_STOP


                                                                                   

2017-01-01T18:56:40.000  -4.073057604686094e+04  -1.089163270357194e+04  -4.975437416867912e+00   7.940776285855684e-01  -2.970493274811464e+00   2.061690514080146e-04
2017-01-01T18:56:50.000  -4.072262443973310e+04  -1.092133473702543e+04  -4.973374336492544e+00   7.962437266482221e-01  -2.969913153405447e+00   2.064470015339176e-04
2017-01-01T18:57:00.000  -4.071465117366867e+04  -1.095103096164258e+04  -4.971308477262579e+00   7.984094008950865e-01  -2.969331452528617e+00   2.067248184661088e-04
2017-01-01T18:57:10.000  -4.070665625290200e+04  -1.098072136166278e+04  -4.969239840508351e+00   8.005746501768765e-01  -2.968748172490202e+00   2.070025020503573e-04
2017-01-01T18:57:20.000  -4.069863968178046e+04  -1.101040592095862e+04  -4.967168427587773e+00   8.027394733175605e-01  -2.968163313607674e+00   2.072800521290514e-04
2017-01-01T18:57:30.000  -4.069060146463470e+04  -1.104008462350944e+04  -4.965094239853027e+00   8.049038691488912e-01  -2.967576876197278e+00   2.075574685456274e-04
2017-01-01T18:57:40.000  -4.068254160582653e+04  -1.106975745322517e+04  -4.963017278662921e+00   8.070678364975615e-01  -2.966988860577549e+00   2.078347511429220e-04
2017-01-01T18:57:50.000  -4.067446010956400e+04  -1.109942439462896e+04  -4.960937545335153e+00   8.092313742349854e-01  -2.966399267055783e+00   2.081118997695584e-04
2017-01-01T18:58:00.000  -4.066635698008564e+04  -1.112908543217627e+04  -4.958855041193890e+00   8.113944812276395e-01  -2.965808095941513e+00   2.083889142735750e-04
2017-01-01T18:58:10.000  -4.065823222161919e+04  -1.115874055040924e+04  -4.956769767559047e+00   8.135571563483240e-01  -2.965215347543481e+00   2.086657945038726e-04
2017-01-01T18:58:20.000  -4.065008583848388e+04  -1.118838973357185e+04  -4.954681725772903e+00   8.157193984480943e-01  -2.964621022177097e+00   2.089425403066051e-04
2017-01-01T18:58:30.000  -4.064191783501517e+04  -1.121803296589587e+04  -4.952590917180453e+00   8.178812063771179e-01  -2.964025120158962e+00   2.092191515278646e-04
2017-01-01T18:58:40.000  -4.063372821556377e+04  -1.124767023160057e+04  -4.950497343129239e+00   8.200425789846499e-01  -2.963427641806790e+00   2.094956280136743e-04
2017-01-01T18:58:50.000  -4.062551698457712e+04  -1.127730151460854e+04  -4.948401004989854e+00   8.222035150983104e-01  -2.962828587445343e+00   2.097719696073468e-04
2017-01-01T18:59:00.000  -4.061728414649069e+04  -1.130692679892880e+04  -4.946301904128483e+00   8.243640135520222e-01  -2.962227957398517e+00   2.100481761530494e-04
2017-01-01T18:59:10.000  -4.060902970577036e+04  -1.133654606850574e+04  -4.944200041917671e+00   8.265240731749983e-01  -2.961625751992422e+00   2.103242474943970e-04
2017-01-01T18:59:20.000  -4.060075366672639e+04  -1.136615930788765e+04  -4.942095419688896e+00   8.286836928404903e-01  -2.961021971541815e+00   2.106001834806879e-04
2017-01-01T18:59:30.000  -4.059245603369925e+04  -1.139576650155816e+04  -4.939988038779978e+00   8.308428714170364e-01  -2.960416616363657e+00   2.108759839606662e-04
2017-01-01T18:59:40.000  -4.058413681101806e+04  -1.142536763408755e+04  -4.937877900524398e+00   8.330016077794934e-01  -2.959809686774080e+00   2.111516487839357e-04
2017-01-01T18:59:50.000  -4.057579600310530e+04  -1.145496268974850e+04  -4.935765006278249e+00   8.351599007810179e-01  -2.959201183096025e+00   2.114271777973635e-04
2017-01-01T19:00:00.000  -4.056743361439986e+04  -1.148455165280163e+04  -4.933649357400344e+00   8.373177492738851e-01  -2.958591105653634e+00   2.117025708477571e-04
2017-01-01T19:00:10.000  -4.055904964935592e+04  -1.151413450749514e+04  -4.931530955252051e+00   8.394751521094669e-01  -2.957979454772159e+00   2.119778277818551e-04
2017-01-01T19:00:20.000  -4.055064411252638e+04  -1.154371123778120e+04  -4.929409801218037e+00   8.416321081175460e-01  -2.957366230784054e+00   2.122529484437066e-04
2017-01-01T19:00:30.000  -4.054221700845147e+04  -1.157328182769831e+04  -4.927285896678470e+00   8.437886161342016e-01  -2.956751434020853e+00   2.125279326782104e-04
2017-01-01T19:00:40.000  -4.053376834170324e+04  -1.160284626121772e+04  -4.925159243020151e+00   8.459446749906102e-01  -2.956135064816404e+00   2.128027803296926e-04
2017-01-01T19:00:50.000  -4.052529811669167e+04  -1.163240452292180e+04  -4.923029841587693e+00   8.481002835625150e-01  -2.955517123492736e+00   2.130774912482031e-04
2017-01-01T19:01:00.000  -4.051680633785868e+04  -1.166195659732389e+04  -4.920897693732434e+00   8.502554407206273e-01  -2.954897610374208e+00   2.133520652832020e-04
2017-01-01T19:01:10.000  -4.050829300962840e+04  -1.169150246904399e+04  -4.918762800799823e+00   8.524101453434355e-01  -2.954276525783872e+00   2.136265022851891e-04
2017-01-01T19:01:20.000  -4.049975813654058e+04  -1.172104212233626e+04  -4.916625164163220e+00   8.545643962827504e-01  -2.953653870053226e+00   2.139008021013165e-04
2017-01-01T19:01:30.000  -4.049120172314078e+04  -1.175057554147901e+04  -4.914484785196046e+00   8.567181923921451e-01  -2.953029643514185e+00   2.141749645790101e-04
2017-01-01T19:01:40.000  -4.048262377400569e+04  -1.178010271068486e+04  -4.912341665278205e+00   8.588715325203998e-01  -2.952403846500933e+00   2.144489895651359e-04
2017-01-01T19:01:50.000  -4.047402429373453e+04  -1.180962361413583e+04  -4.910195805793760e+00   8.610244155140683e-01  -2.951776479349301e+00   2.147228769063239e-04
2017-01-01T19:02:00.000  -4.046540328694303e+04  -1.183913823599966e+04  -4.908047208129565e+00   8.631768402186591e-01  -2.951147542396326e+00   2.149966264491221e-04
2017-01-01T19:02:10.000  -4.045676075825321e+04  -1.186864656046502e+04  -4.905895873672695e+00   8.653288054812112e-01  -2.950517035979490e+00   2.152702380403217e-04
2017-01-01T19:02:20.000  -4.044809671228961e+04  -1.189814857175851e+04  -4.903741803809425e+00   8.674803101515265e-01  -2.949884960436477e+00   2.155437115271264e-04
2017-01-01T19:02:30.000  -4.043941115366774e+04  -1.192764425417885e+04  -4.901584999922464e+00   8.696313530846720e-01  -2.949251316104298e+00   2.158170467574562e-04
2017-01-01T19:02:40.000  -4.043070408702102e+04  -1.195713359200755e+04  -4.899425463397603e+00   8.717819331344572e-01  -2.948616103321276e+00   2.160902435791245e-04
2017-01-01T19:02:50.000  -4.042197551688394e+04  -1.198661656989682e+04  -4.897263195595010e+00   8.739320491817273e-01  -2.947979322418515e+00   2.163633018434159e-04
2017-01-01T19:03:00.000  -4.041322544783320e+04  -1.201609317239937e+04  -4.895098197883938e+00   8.760817001000690e-01  -2.947340973730197e+00   2.166362214007451e-04
2017-01-01T19:03:10.000  -4.040445388443456e+04  -1.204556338414613e+04  -4.892930471629650e+00   8.782308847687790e-01  -2.946701057589703e+00   2.169090021023002e-04
2017-01-01T19:03:20.000  -4.039566083144773e+04  -1.207502718915726e+04  -4.890760018244063e+00   8.803796020226108e-01  -2.946059574344571e+00   2.171816437936707e-04
2017-01-01T19:03:30.000  -4.038684629362177e+04  -1.210448457153127e+04  -4.888586839135123e+00   8.825278507020298e-01  -2.945416524341551e+00   2.174541463212216e-04
2017-01-01T19:03:40.000  -4.037801027574754e+04  -1.213393551526708e+04  -4.886410935719836e+00   8.846756296402422e-01  -2.944771907930449e+00   2.177265095304457e-04
2017-01-01T19:03:50.000  -4.036915278251917e+04  -1.216338000473499e+04  -4.884232309389839e+00   8.868229376975383e-01  -2.944125725454012e+00   2.179987332703243e-04
2017-01-01T19:04:00.000  -4.036027381864802e+04  -1.219281802428797e+04  -4.882050961539755e+00   8.889697737329442e-01  -2.943477977256241e+00   2.182708173897275e-04
2017-01-01T19:04:10.000  -4.035137338883649e+04  -1.222224955835127e+04  -4.879866893560674e+00   8.911161366107579e-01  -2.942828663680485e+00   2.185427617382446e-04
2017-01-01T19:04:20.000  -4.034245149778689e+04  -1.225167459138732e+04  -4.877680106842520e+00   8.932620251979906e-01  -2.942177785070087e+00   2.188145661658564e-04
2017-01-01T19:04:30.000  -4.033350815020774e+04  -1.228109310787967e+04  -4.875490602775433e+00   8.954074383631926e-01  -2.941525341768839e+00   2.190862305227894e-04
2017-01-01T19:04:40.000  -4.032454335082437e+04  -1.231050509229772e+04  -4.873298382752373e+00   8.975523749738854e-01  -2.940871334121760e+00   2.193577546591897e-04
2017-01-01T19:04:50.000  -4.031555710438266e+04  -1.233991052907997e+04  -4.871103448170205e+00   8.996968338953345e-01  -2.940215762475372e+00   2.196291384249629e-04
2017-01-01T19:05:00.000  -4.030654941566123e+04  -1.236930940259980e+04  -4.868905800432460e+00   9.018408139880598e-01  -2.939558627178577e+00   2.199003816694652e-04
2017-01-01T19:05:10.000  -4.029752028944339e+04  -1.239870169725463e+04  -4.866705440942586e+00   9.039843141143330e-01  -2.938899928580627e+00   2.201714842423235e-04
2017-01-01T19:05:20.000  -4.028846973063824e+04  -1.242808739707928e+04  -4.864502371133208e+00   9.061273331099846e-01  -2.938239667039940e+00   2.204424459898759e-04
2017-01-01T19:05:30.000  -4.027939774413436e+04  -1.245746648621467e+04  -4.862296592430718e+00   9.082698698185823e-01  -2.937577842913446e+00   2.207132667594888e-04
2017-01-01T19:05:40.000  -4.027030433485400e+04  -1.248683894873345e+04  -4.860088106268433e+00   9.104119230787154e-01  -2.936914456560529e+00   2.209839463979492e-04
